GPS BIIR-2  (PRN 13)    
1 24876U 97035A   22216.72461150  .00000037  00000+0  00000+0 0  9998
2 24876  55.5165 153.7912 0060462  51.4636 309.0713  2.00563043183623
GPS BIIR-4  (PRN 20)    
1 26360U 00025A   22216.60392576 -.00000032  00000+0  00000+0 0  9999
2 26360  54.0964  76.8769 0047719 184.2679 178.9924  2.00568716162942
GPS BIIR-6  (PRN 22)    
1 26605U 00071A   22216.67787618  .00000032  00000+0  00000+0 0  9993
2 26605  55.1007 150.7650 0136675 254.5749 289.4657  2.00557559159180
GPS BIIR-8  (PRN 16)    
1 27663U 03005A   22216.85630789  .00000029  00000+0  00000+0 0  9990
2 27663  55.4794 271.1393 0125385  41.1041 123.0974  2.00561696142986
GPS BIIR-9  (PRN 21)    
1 27704U 03010A   22216.95169025 -.00000058  00000+0  00000+0 0  9996
2 27704  55.0426  21.3441 0244223 307.3174 141.3883  2.00558327141782
GPS BIIR-11 (PRN 19)    
1 28190U 04009A   22216.76063450 -.00000069  00000+0  00000+0 0  9991
2 28190  55.9742 332.1386 0090432 123.2895 126.8541  2.00559404134619
GPS BIIR-13 (PRN 02)    
1 28474U 04045A   22216.58494712 -.00000057  00000+0  00000+0 0  9992
2 28474  55.3687  21.5144 0201468 279.5817 103.5377  2.00423555130105
GPS BIIRM-1 (PRN 17)    
1 28874U 05038A   22216.76183355 -.00000067  00000+0  00000+0 0  9998
2 28874  56.0382 329.5751 0138317 274.6152   1.0566  2.00573359123500
GPS BIIRM-2 (PRN 31)    
1 29486U 06042A   22216.68384299  .00000101  00000+0  00000+0 0  9993
2 29486  54.7135 207.3560 0104066  22.3133 109.9348  2.00550156116062
GPS BIIRM-3 (PRN 12)    
1 29601U 06052A   22216.44119601  .00000029  00000+0  00000+0 0  9999
2 29601  55.4880 270.0957 0082815  74.8984 286.0918  2.00553699115071
GPS BIIRM-4 (PRN 15)    
1 32260U 07047A   22216.75227352  .00000012  00000+0  00000+0 0  9998
2 32260  53.3256 138.5432 0141577  63.4193 298.0363  2.00571995108486
GPS BIIRM-5 (PRN 29)    
1 32384U 07062A   22216.81366733 -.00000068  00000+0  00000+0 0  9998
2 32384  56.1587 330.3405 0021101 141.5272  32.0843  2.00564856107182
GPS BIIRM-6 (PRN 07)    
1 32711U 08012A   22216.16890179  .00000098  00000+0  00000+0 0  9994
2 32711  54.4742 206.3006 0165420 231.6328 126.8728  2.00566455105410
GPS BIIRM-8 (PRN 05)    
1 35752U 09043A   22216.88227192 -.00000028  00000+0  00000+0 0  9999
2 35752  55.1069  83.5778 0059137  60.7574 108.5633  2.00552944 95036
GPS BIIF-1  (PRN 25)    
1 36585U 10022A   22216.59554189  .00000038  00000+0  00000+0 0  9990
2 36585  54.7730 265.5747 0102598  56.8916  24.6319  2.00567698 89264
GPS BIIF-2  (PRN 01)    
1 37753U 11036A   22216.85428108 -.00000050  00000+0  00000+0 0  9999
2 37753  56.6283  26.8205 0118511  53.0262 299.6966  2.00565635 80945
GPS BIIF-3  (PRN 24)    
1 38833U 12053A   22216.84861177  .00000096  00000+0  00000+0 0  9994
2 38833  53.5298 201.3682 0125779  46.5871 314.4506  2.00562352 71111
GPS BIIF-4  (PRN 27)    
1 39166U 13023A   22216.70699349 -.00000065  00000+0  00000+0 0  9994
2 39166  55.6635 325.9310 0103951  38.6484 322.1189  2.00565545 67553
GPS BIIF-5  (PRN 30)    
1 39533U 14008A   22216.20938468  .00000096  00000+0  00000+0 0  9992
2 39533  53.6229 206.9055 0060704 209.7372 149.9202  2.00556137 61346
GPS BIIF-6  (PRN 06)    
1 39741U 14026A   22216.49096319 -.00000051  00000+0  00000+0 0  9996
2 39741  56.5891  26.3605 0026180 306.2964  53.4907  2.00552542 60200
GPS BIIF-7  (PRN 09)    
1 40105U 14045A   22216.07462841  .00000027  00000+0  00000+0 0  9996
2 40105  54.7013 144.9037 0020978 111.0514 249.1791  2.00550437 57730
GPS BIIF-8  (PRN 03)    
1 40294U 14068A   22216.44761849 -.00000025  00000+0  00000+0 0  9990
2 40294  55.8502  86.0391 0042407  56.8420 303.6398  2.00574915 56876
GPS BIIF-9  (PRN 26)    
1 40534U 15013A   22216.59004606  .00000042  00000+0  00000+0 0  9993
2 40534  53.6740 262.7010 0069429  20.2141 340.1326  2.00549400 53495
GPS BIIF-10 (PRN 08)    
1 40730U 15033A   22216.75053969 -.00000065  00000+0  00000+0 0  9993
2 40730  55.1606 324.7353 0073674   7.8856 352.2596  2.00575791 51663
GPS BIIF-11 (PRN 10)    
1 41019U 15062A   22216.29811903 -.00000025  00000+0  00000+0 0  9991
2 41019  55.8382  85.8888 0078905 217.5740 141.9463  2.00562660 49499
GPS BIIF-12 (PRN 32)    
1 41328U 16007A   22216.38750539  .00000026  00000+0  00000+0 0  9991
2 41328  54.9176 145.5746 0062303 230.5552 128.8979  2.00568494 47508
GPS BIII-1  (PRN 04)    
1 43873U 18109A   22216.44331976  .00000030  00000+0  00000+0 0  9995
2 43873  55.0972 148.0017 0019517 192.0827 103.7033  2.00552423 26736
GPS BIII-2  (PRN 18)    
1 44506U 19056A   22216.90778014 -.00000052  00000+0  00000+0 0  9995
2 44506  55.7019  27.1229 0026428 178.1535 352.4828  2.00557634 21741
GPS BIII-3  (PRN 23)    
1 45854U 20041A   22216.89568715 -.00000027  00000+0  00000+0 0  9993
2 45854  55.5574  84.3921 0024350 176.7958 281.5828  2.00558225 15710
GPS BIII-4  (PRN 14)    
1 46826U 20078A   22216.69909962  .00000033  00000+0  00000+0 0  9990
2 46826  54.5362 268.1384 0022063 190.2709 102.4052  2.00564932 13173
GPS BIII-5  (PRN 11)    
1 48859U 21054A   22216.56143001 -.00000053  00000+0  00000+0 0  9996
2 48859  55.2086  29.1129 0006158 190.2428 187.5690  2.00570743  8420
